1 14129U 83058B   03314.60782359  .00000108  00000-0  10000-3 0  9872
2 14129  26.3474 121.8762 5973512  40.3517 351.3835  2.05866384125529